COSMOS 2477 [GLONASS-M] 
1 37868U 11064B   23123.43606448  .00000081  00000+0  00000+0 0  9997
2 37868  64.7387 111.6100 0021318 242.8904 115.9169  2.13101644 89453
COSMOS 2475 [GLONASS-M] 
1 37869U 11064C   23123.14019178  .00000082  00000+0  00000+0 0  9995
2 37869  64.7466 111.6313 0026244 257.4567 192.6779  2.13101886 89466
YAOGAN 12               
1 37875U 11066B   23123.82278071  .00009786  00000+0  40838-3 0  9995
2 37875  97.2733 192.0335 0004867 332.6094 120.8258 15.23849335638936
CHUANGXIN 1-03 (CX-1-03)
1 37930U 11068A   23123.87067749  .00000164  00000+0  80890-4 0  9996
2 37930  98.7089 123.8408 0014175 214.3034 145.7229 14.29969698600038
SHIYAN 4 (SY-4)         
1 37931U 11068B   23123.42246326  .00000273  00000+0  12264-3 0  9998
2 37931  98.7109 124.0755 0022167 250.0873 109.7918 14.30169253597657
ASIASAT 7               
1 37933U 11069A   23123.36567718 -.00000322  00000+0  00000+0 0  9992
2 37933   0.0186 163.1907 0001883 193.0016 101.9716  1.00272849 42025
YAOGAN 13               
1 37941U 11072A   23123.86763811  .00011544  00000+0  43521-3 0  9998
2 37941  97.6752  85.2716 0002721  54.7329  29.2996 15.27230310633589
BEIDOU-2 IGSO-5         
1 37948U 11073A   23123.83273810 -.00000157  00000+0  00000+0 0  9998
2 37948  49.7563 285.4518 0086567 218.5087 112.0985  1.00260836 41965
LUCH-5A                 
1 37951U 11074B   23123.59556334 -.00000031  00000+0  00000+0 0  9992
2 37951   5.8306  91.7924 0004211 328.3747 182.3595  1.00270466 41759
SSOT                    
1 38011U 11076E   23123.74017898  .00001806  00000+0  23369-3 0  9993
2 38011  97.7527 191.9195 0001422  81.5228 278.6137 14.82057403615473
PLEIADES 1A             
1 38012U 11076F   23123.74982678  .00000581  00000+0  13473-3 0  9995
2 38012  98.1998 199.1677 0001602  89.9295 270.2077 14.58559249605762
NIGCOMSAT 1R            
1 38014U 11077A   23123.06631414  .00000156  00000+0  00000+0 0  9998
2 38014   0.0737  89.3717 0002095 259.9174 297.8130  1.00275309 41511
ZIYUAN 1-02C (ZY 1-02C) 
1 38038U 11079A   23123.79698690  .00000364  00000+0  13966-3 0  9995
2 38038  98.5450 191.4272 0007854 106.0466 254.1578 14.36215051595456
GLOBALSTAR M084         
1 38040U 11080A   23123.54751240 -.00000110  00000+0 -35239-4 0  9993
2 38040  52.0003 249.8050 0000821 127.4519 312.8532 12.62270138524710
GLOBALSTAR M080         
1 38041U 11080B   23123.85684751 -.00000100  00000+0  19543-4 0  9998
2 38041  52.0054 250.1961 0001031 119.9555  47.4775 12.62279750525016
GLOBALSTAR M082         
1 38042U 11080C   23123.53916205 -.00000081  00000+0  12894-3 0  9995
2 38042  52.0063 206.5296 0000240 261.1752 201.1303 12.62267461525712
GLOBALSTAR M092         
1 38043U 11080D   23123.49443531 -.00000071  00000+0  18417-3 0  9994
2 38043  52.0086 297.0015 0000982 121.0633 257.4220 12.62269123524209
GLOBALSTAR M090         
1 38044U 11080E   23123.46658031 -.00000067  00000+0  20443-3 0  9992
2 38044  51.9869 201.5579 0000208  99.6728 273.5044 12.62264417525652
GLOBALSTAR M086         
1 38045U 11080F   23123.60159413 -.00000078  00000+0  14393-3 0  9998
2 38045  51.9882 201.6379 0001186  63.8708  82.8741 12.62266910525615
ZIYUAN 3-1 (ZY 3-1)     
1 38046U 12001A   23123.78662141  .00008954  00000+0  38075-3 0  9992
2 38046  97.2983 191.2058 0005014 158.7237 341.2054 15.23238968628327
FENGYUN 2F              
1 38049U 12002A   23123.54697499 -.00000342  00000+0  00000+0 0  9991
2 38049   4.5782  77.0440 0002029  45.2765  48.3446  1.00269370 41457
WGS F4 (USA 233)        
1 38070U 12003A   23123.72070023 -.00000202  00000+0  00000+0 0  9999
2 38070   0.0147 259.9273 0000228  88.8932 220.4097  1.00272449 41287
LARES                   
1 38077U 12006A   23123.35357136 -.00000029  00000+0  58519-4 0  9991
2 38077  69.4926  80.8931 0007012  26.2009 333.9371 12.54931585514047
SES-4                   
1 38087U 12007A   23123.62702809 -.00000155  00000+0  00000+0 0  9991
2 38087   0.0166  71.8468 0002479 340.6765  12.4648  1.00270401 41058
BEIDOU-2 G5             
1 38091U 12008A   23123.55049248  .00000069  00000+0  00000+0 0  9993
2 38091   1.4281  65.2645 0005375 272.3163 140.6152  1.00274613 41043
MUOS-1                  
1 38093U 12009A   23123.55949420 -.00000113  00000+0  00000+0 0  9998
2 38093   3.3588  39.2561 0059385   0.1422 283.2371  1.00273132 41018
INTELSAT 22 (IS-22)     
1 38098U 12011A   23123.50236007 -.00000046  00000+0  00000+0 0  9996
2 38098   0.0122 289.2026 0002271 115.3880  69.4860  1.00272029 40383
APSTAR 7                
1 38107U 12013A   23123.57015233 -.00000088  00000+0  00000+0 0  9998
2 38107   0.0161 264.3670 0002865 148.1446  90.4413  1.00269815 40733
YAHSAT 1B               
1 38245U 12016A   23123.13900958  .00000138  00000+0  00000+0 0  9998
2 38245   0.0082 214.8991 0002714 208.2211 255.3235  1.00271535 34150
BEIDOU-2 M3             
1 38250U 12018A   23123.64862807 -.00000061  00000+0  00000+0 0  9998
2 38250  56.5728 342.9691 0020910 262.4717  63.9338  1.86231238 75040
BEIDOU-2 M4             
1 38251U 12018B   23123.35885256 -.00000061  00000+0  00000+0 0  9990
2 38251  56.4859 342.2813 0011805 267.7606 269.6138  1.86234241 75042
AEHF-2 (USA 235)        
1 38254U 12019A   23123.44646638 -.00000145  00000+0  00000+0 0  9996
2 38254   4.0372  62.0792 0002594 330.2349 255.2867  1.00273081 39414
TIANHUI 1-02            
1 38256U 12020A   23123.79859409  .00008472  00000+0  28887-3 0  9997
2 38256  97.5418 261.8265 0013019 235.0544 262.8323 15.30539328611325
YAOGAN 14               
1 38257U 12021A   23123.82107127  .00009521  00000+0  40082-3 0  9993
2 38257  97.5850 273.3883 0004013 334.3575 161.6698 15.23580092612318
JCSAT-13                
1 38331U 12023A   23123.51894521 -.00000343  00000+0  00000+0 0  9991
2 38331   0.0121 220.1948 0003353 220.0444  91.7456  1.00270519 40090
VINASAT-2               
1 38332U 12023B   23123.61517716 -.00000316  00000+0  00000+0 0  9991
2 38332   0.0229  73.5712 0002894 351.1015 149.8906  1.00267867 35224
GCOM-W1 (SHIZUKU)       
1 38337U 12025A   23123.44221279  .00000781  00000+0  18328-3 0  9996
2 38337  98.1980  64.4238 0002429  57.1451  56.0716 14.57125556582919
ARIRANG-3 (KOMPSAT-3)   
1 38338U 12025B   23123.79388468  .00000810  00000+0  17125-3 0  9996
2 38338  98.2162  66.1846 0011823  82.3489 277.9057 14.61917203584777
SDS-4                   
1 38339U 12025C   23123.75430112  .00001136  00000+0  19102-3 0  9996
2 38339  98.2046 196.4544 0006858 345.8101  14.2903 14.71574434588100
NIMIQ 6                 
1 38342U 12026A   23123.54151941 -.00000160  00000+0  00000+0 0  9998
2 38342   0.0117 294.5057 0003059 113.0174 277.4956  1.00270227 40169
CHINASAT 2A (ZX 2A)     
1 38352U 12028A   23123.57483610 -.00000280  00000+0  00000+0 0  9998
2 38352   0.0309 357.9777 0001921  26.3114 142.1263  1.00270221 39949
YAOGAN 15               
1 38354U 12029A   23123.78938041 -.00000008  00000+0  10000-3 0  9990
2 38354 100.7233 290.2138 0024968 351.2890   8.7787 13.18295151525176
INTELSAT 19 (IS-19)     
1 38356U 12030A   23123.80778361 -.00000043  00000+0  00000+0 0  9998
2 38356   0.0182 278.7342 0003094 128.3932 271.1268  1.00272032 40070
NUSTAR                  
1 38358U 12031A   23122.68621999  .00004944  00000+0  40769-3 0  9993
2 38358   6.0250 197.9712 0011847 273.1870  86.6903 14.91641199592550
ECHOSTAR 17             
1 38551U 12035A   23123.55226274 -.00000062  00000+0  00000+0 0  9994
2 38551   0.0150 255.1102 0001834 168.2932 249.5013  1.00270545 39621
METEOSAT-10 (MSG-3)     
1 38552U 12035B   23123.34458330  .00000006  00000+0  00000+0 0  9999
2 38552   2.0851  54.5119 0000356 327.9789 322.3725  1.00276027 39411
SES-5                   
1 38652U 12036A   23123.56069567  .00000047  00000+0  00000+0 0  9990
2 38652   0.0486 296.2746 0002130 107.5785  24.1864  1.00272374 39631
KANOPUS-V 1             
1 38707U 12039A   23123.68336531  .00009083  00000+0  32614-3 0  9994
2 38707  97.4792  49.8935 0002388  92.2359 267.9154 15.28900287598181
BKA 2                   
1 38708U 12039B   23123.87662421  .00015589  00000+0  53838-3 0  9995
2 38708  97.3031  21.6131 0002398  85.5051 343.4075 15.30025629598248
EXACTVIEW-1 (ADS-1B)    
1 38709U 12039C   23123.78742240  .00000162  00000+0  90198-4 0  9996
2 38709  98.9707 202.5935 0010471 212.2333 147.8206 14.24223643560330
MKA-PN 1                
1 38711U 12039E   23123.83026438  .00000194  00000+0  10372-3 0  9999
2 38711  98.9673 202.1326 0011104 211.6110 148.4402 14.24544230560439
TIANLIAN 1-03           
1 38730U 12040A   23122.89062240  .00000138  00000+0  00000+0 0  9999
2 38730   2.8265  87.4279 0008635 343.7862 130.3451  1.00270199 39545
COSMOS 2481             
1 38733U 12041A   23123.54474195  .00000035  00000+0  17911-3 0  9991
2 38733  82.4742  66.3392 0019817  42.6005 317.6605 12.42398430488199
GONETS-M 3              
1 38734U 12041B   23123.87917095  .00000046  00000+0  25581-3 0  9993
2 38734  82.4754  58.9843 0017803  39.6648 320.5727 12.44842515488854
GONETS-M 4              
1 38736U 12041D   23123.88779096  .00000062  00000+0  36980-3 0  9996
2 38736  82.4804  63.2326 0026115  26.1832 334.0562 12.43845666488619
INTELSAT 20 (IS-20)     
1 38740U 12043A   23123.35826817 -.00000012  00000+0  00000+0 0  9995
2 38740   0.0230 150.0282 0001605  36.7926 231.6516  1.00271369 39300
HYLAS 2                 
1 38741U 12043B   23123.49416657  .00000167  00000+0  00000+0 0  9998
2 38741   0.0222  99.7580 0001944 308.9037  21.4027  1.00273081 39322
EXPRESS-MD2             
1 38745U 12044B   23123.45250181  .00036521  35338-5  86001-3 0  9997
2 38745  49.8665 224.8862 2018920 210.0460 136.7754 11.43673212424782
INTELSAT 21 (IS-21)     
1 38749U 12045A   23123.54814394 -.00000271  00000+0  00000+0 0  9991
2 38749   0.0122 287.8018 0002360 121.2097 311.4994  1.00267743 39086
